{"fetched_at":"2026-05-03T06:27:58Z","count":17151,"tles":[{"name":"STARLINK-37441","line1":"1 68858U 26094V   26122.41670139 -.01690124  88005-3 -31276-2 0  9990","line2":"2 68858  97.2813 136.0794 0001325  87.8684 153.9985 16.01280600  2005","category":"Starlink"}]}