{
  "norad_id": 68858,
  "name": "STARLINK-37441",
  "history": [
    {
      "epoch": "2026-05-02T10:00:03.000096Z",
      "apogee_km": 271.752367978851,
      "perigee_km": 269.990380759642,
      "latitude_deg": -61.23893641005842,
      "longitude_deg": -67.65195560580014,
      "height_km": 295.2882005210368,
      "semi_major_axis_km": 6649.008374369246,
      "eccentricity": 0.0001325,
      "inclination_deg": 97.2813,
      "raan_deg": 136.0794,
      "arg_perigee_deg": 87.8684,
      "mean_anomaly_deg": 153.9985,
      "mean_motion_rev_day": 16.012806
    }
  ]
}